[{"OBJECT_NAME":"ONEWEB-0302","OBJECT_ID":"2021-075S","EPOCH":"2025-12-20T03:30:18.412416","MEAN_MOTION":13.12457418,"ECCENTRICITY":0.00013787,"INCLINATION":87.8931,"RA_OF_ASC_NODE":26.2235,"ARG_OF_PERICENTER":90.776,"MEAN_ANOMALY":269.3526,"EPHEMERIS_TYPE":0,"CLASSIFICATION_TYPE":"U","NORAD_CAT_ID":49091,"ELEMENT_SET_NO":999,"REV_AT_EPOCH":21106,"BSTAR":0.00030178415,"MEAN_MOTION_DOT":1.21e-6,"MEAN_MOTION_DDOT":0},{"OBJECT_NAME":"ONEWEB-0304","OBJECT_ID":"2021-075T","EPOCH":"2025-12-20T02:39:37.647360","MEAN_MOTION":13.17650076,"ECCENTRICITY":0.00017194,"INCLINATION":87.9111,"RA_OF_ASC_NODE":41.4708,"ARG_OF_PERICENTER":102.8125,"MEAN_ANOMALY":257.3198,"EPHEMERIS_TYPE":0,"CLASSIFICATION_TYPE":"U","NORAD_CAT_ID":49092,"ELEMENT_SET_NO":999,"REV_AT_EPOCH":20999,"BSTAR":0.00021838124,"MEAN_MOTION_DOT":9.8e-7,"MEAN_MOTION_DDOT":0},{"OBJECT_NAME":"ONEWEB-0305","OBJECT_ID":"2021-075U","EPOCH":"2025-12-20T04:19:15.587328","MEAN_MOTION":13.17647393,"ECCENTRICITY":0.00017635,"INCLINATION":87.9115,"RA_OF_ASC_NODE":41.4344,"ARG_OF_PERICENTER":113.5315,"MEAN_ANOMALY":246.6002,"EPHEMERIS_TYPE":0,"CLASSIFICATION_TYPE":"U","NORAD_CAT_ID":49093,"ELEMENT_SET_NO":999,"REV_AT_EPOCH":21003,"BSTAR":-2.9772085e-5,"MEAN_MOTION_DOT":1.0e-8,"MEAN_MOTION_DDOT":0},{"OBJECT_NAME":"ONEWEB-0308","OBJECT_ID":"2021-075V","EPOCH":"2025-12-20T03:20:37.457952","MEAN_MOTION":13.12496981,"ECCENTRICITY":0.00017765,"INCLINATION":87.8935,"RA_OF_ASC_NODE":26.2194,"ARG_OF_PERICENTER":95.2026,"MEAN_ANOMALY":264.9306,"EPHEMERIS_TYPE":0,"CLASSIFICATION_TYPE":"U","NORAD_CAT_ID":49094,"ELEMENT_SET_NO":999,"REV_AT_EPOCH":21107,"BSTAR":-9.5417013e-5,"MEAN_MOTION_DOT":-2.2e-7,"MEAN_MOTION_DDOT":0},{"OBJECT_NAME":"ONEWEB-0309","OBJECT_ID":"2021-075W","EPOCH":"2025-12-20T04:24:07.575264","MEAN_MOTION":13.17648025,"ECCENTRICITY":0.00013668,"INCLINATION":87.9113,"RA_OF_ASC_NODE":41.4495,"ARG_OF_PERICENTER":94.2416,"MEAN_ANOMALY":265.8872,"EPHEMERIS_TYPE":0,"CLASSIFICATION_TYPE":"U","NORAD_CAT_ID":49095,"ELEMENT_SET_NO":999,"REV_AT_EPOCH":21000,"BSTAR":-2.425073e-6,"MEAN_MOTION_DOT":1.2e-7,"MEAN_MOTION_DDOT":0},{"OBJECT_NAME":"ONEWEB-0310","OBJECT_ID":"2021-075X","EPOCH":"2025-12-20T01:52:38.549280","MEAN_MOTION":13.12409435,"ECCENTRICITY":0.00016677,"INCLINATION":87.8922,"RA_OF_ASC_NODE":26.2679,"ARG_OF_PERICENTER":93.9356,"MEAN_ANOMALY":266.1963,"EPHEMERIS_TYPE":0,"CLASSIFICATION_TYPE":"U","NORAD_CAT_ID":49096,"ELEMENT_SET_NO":999,"REV_AT_EPOCH":21169,"BSTAR":0.00019996296,"MEAN_MOTION_DOT":8.5e-7,"MEAN_MOTION_DDOT":0},{"OBJECT_NAME":"ONEWEB-0311","OBJECT_ID":"2021-075Y","EPOCH":"2025-12-20T02:44:29.373504","MEAN_MOTION":13.17649329,"ECCENTRICITY":0.0001897,"INCLINATION":87.911,"RA_OF_ASC_NODE":41.4588,"ARG_OF_PERICENTER":111.3869,"MEAN_ANOMALY":248.7466,"EPHEMERIS_TYPE":0,"CLASSIFICATION_TYPE":"U","NORAD_CAT_ID":49097,"ELEMENT_SET_NO":999,"REV_AT_EPOCH":21004,"BSTAR":6.9195239e-5,"MEAN_MOTION_DOT":4.0e-7,"MEAN_MOTION_DDOT":0},{"OBJECT_NAME":"ONEWEB-0312","OBJECT_ID":"2021-075Z","EPOCH":"2025-12-20T03:06:22.189536","MEAN_MOTION":13.17649013,"ECCENTRICITY":0.0001598,"INCLINATION":87.91,"RA_OF_ASC_NODE":41.481,"ARG_OF_PERICENTER":108.2789,"MEAN_ANOMALY":251.8516,"EPHEMERIS_TYPE":0,"CLASSIFICATION_TYPE":"U","NORAD_CAT_ID":49098,"ELEMENT_SET_NO":999,"REV_AT_EPOCH":21002,"BSTAR":0.00022535059,"MEAN_MOTION_DOT":1.0e-6,"MEAN_MOTION_DDOT":0},{"OBJECT_NAME":"ONEWEB-0313","OBJECT_ID":"2021-075AA","EPOCH":"2025-12-20T01:24:06.824448","MEAN_MOTION":13.17648471,"ECCENTRICITY":0.0001838,"INCLINATION":87.9102,"RA_OF_ASC_NODE":41.5028,"ARG_OF_PERICENTER":102.4308,"MEAN_ANOMALY":257.703,"EPHEMERIS_TYPE":0,"CLASSIFICATION_TYPE":"U","NORAD_CAT_ID":49099,"ELEMENT_SET_NO":999,"REV_AT_EPOCH":21000,"BSTAR":0.00025739395,"MEAN_MOTION_DOT":1.13e-6,"MEAN_MOTION_DDOT":0},{"OBJECT_NAME":"ONEWEB-0314","OBJECT_ID":"2021-075AB","EPOCH":"2025-12-19T20:57:00.949824","MEAN_MOTION":13.17647853,"ECCENTRICITY":0.0001542,"INCLINATION":87.9113,"RA_OF_ASC_NODE":41.493,"ARG_OF_PERICENTER":110.6825,"MEAN_ANOMALY":249.4472,"EPHEMERIS_TYPE":0,"CLASSIFICATION_TYPE":"U","NORAD_CAT_ID":49100,"ELEMENT_SET_NO":999,"REV_AT_EPOCH":20995,"BSTAR":-0.00018257,"MEAN_MOTION_DOT":-5.8e-7,"MEAN_MOTION_DDOT":0},{"OBJECT_NAME":"ONEWEB-0315","OBJECT_ID":"2021-075AC","EPOCH":"2025-12-20T03:03:39.551040","MEAN_MOTION":13.12561781,"ECCENTRICITY":0.0002011,"INCLINATION":87.8935,"RA_OF_ASC_NODE":26.2069,"ARG_OF_PERICENTER":106.2413,"MEAN_ANOMALY":253.8937,"EPHEMERIS_TYPE":0,"CLASSIFICATION_TYPE":"U","NORAD_CAT_ID":49101,"ELEMENT_SET_NO":999,"REV_AT_EPOCH":21168,"BSTAR":-0.00068819371,"MEAN_MOTION_DOT":-2.35e-6,"MEAN_MOTION_DDOT":0},{"OBJECT_NAME":"ONEWEB-0316","OBJECT_ID":"2021-075AD","EPOCH":"2025-12-20T00:20:49.175520","MEAN_MOTION":13.18686575,"ECCENTRICITY":0.00018144,"INCLINATION":87.9174,"RA_OF_ASC_NODE":11.0502,"ARG_OF_PERICENTER":95.5967,"MEAN_ANOMALY":264.5372,"EPHEMERIS_TYPE":0,"CLASSIFICATION_TYPE":"U","NORAD_CAT_ID":49102,"ELEMENT_SET_NO":999,"REV_AT_EPOCH":21359,"BSTAR":0.00017865763,"MEAN_MOTION_DOT":8.3e-7,"MEAN_MOTION_DDOT":0},{"OBJECT_NAME":"ONEWEB-0317","OBJECT_ID":"2021-075AE","EPOCH":"2025-12-20T01:05:13.922592","MEAN_MOTION":13.12488679,"ECCENTRICITY":0.00015498,"INCLINATION":87.8934,"RA_OF_ASC_NODE":26.2416,"ARG_OF_PERICENTER":70.8691,"MEAN_ANOMALY":289.2606,"EPHEMERIS_TYPE":0,"CLASSIFICATION_TYPE":"U","NORAD_CAT_ID":49103,"ELEMENT_SET_NO":999,"REV_AT_EPOCH":21169,"BSTAR":-0.00090900132,"MEAN_MOTION_DOT":-3.15e-6,"MEAN_MOTION_DDOT":0},{"OBJECT_NAME":"ONEWEB-0318","OBJECT_ID":"2021-075AF","EPOCH":"2025-12-20T00:16:04.013184","MEAN_MOTION":13.18686624,"ECCENTRICITY":0.00018365,"INCLINATION":87.9176,"RA_OF_ASC_NODE":11.0384,"ARG_OF_PERICENTER":101.6029,"MEAN_ANOMALY":258.531,"EPHEMERIS_TYPE":0,"CLASSIFICATION_TYPE":"U","NORAD_CAT_ID":49104,"ELEMENT_SET_NO":999,"REV_AT_EPOCH":21355,"BSTAR":0.00025776615,"MEAN_MOTION_DOT":1.15e-6,"MEAN_MOTION_DDOT":0},{"OBJECT_NAME":"ONEWEB-0319","OBJECT_ID":"2021-075AG","EPOCH":"2025-12-20T02:46:53.994144","MEAN_MOTION":13.17650805,"ECCENTRICITY":0.00018719,"INCLINATION":87.9102,"RA_OF_ASC_NODE":41.4775,"ARG_OF_PERICENTER":114.1896,"MEAN_ANOMALY":245.9432,"EPHEMERIS_TYPE":0,"CLASSIFICATION_TYPE":"U","NORAD_CAT_ID":49105,"ELEMENT_SET_NO":999,"REV_AT_EPOCH":21002,"BSTAR":0.00013619166,"MEAN_MOTION_DOT":6.6e-7,"MEAN_MOTION_DDOT":0},{"OBJECT_NAME":"ONEWEB-0323","OBJECT_ID":"2021-075AH","EPOCH":"2025-12-20T02:41:28.307616","MEAN_MOTION":13.12430579,"ECCENTRICITY":0.0001867,"INCLINATION":87.8934,"RA_OF_ASC_NODE":26.215,"ARG_OF_PERICENTER":117.4494,"MEAN_ANOMALY":242.6824,"EPHEMERIS_TYPE":0,"CLASSIFICATION_TYPE":"U","NORAD_CAT_ID":49106,"ELEMENT_SET_NO":999,"REV_AT_EPOCH":21106,"BSTAR":-0.0006360317,"MEAN_MOTION_DOT":-2.16e-6,"MEAN_MOTION_DDOT":0},{"OBJECT_NAME":"ONEWEB-0329","OBJECT_ID":"2021-075AJ","EPOCH":"2025-12-20T02:59:05.115264","MEAN_MOTION":13.17648351,"ECCENTRICITY":0.0001721,"INCLINATION":87.91,"RA_OF_ASC_NODE":41.4778,"ARG_OF_PERICENTER":103.2931,"MEAN_ANOMALY":256.8392,"EPHEMERIS_TYPE":0,"CLASSIFICATION_TYPE":"U","NORAD_CAT_ID":49107,"ELEMENT_SET_NO":999,"REV_AT_EPOCH":21000,"BSTAR":-1.234996e-5,"MEAN_MOTION_DOT":8.0e-8,"MEAN_MOTION_DDOT":0}]
