ONEWEB-0302             
1 49091U 21075S   25354.14604644  .00000121  00000+0  30178-3 0  9991
2 49091  87.8931  26.2235 0001378  90.7760 269.3526 13.12457418211068
ONEWEB-0304             
1 49092U 21075T   25354.11085240  .00000098  00000+0  21838-3 0  9990
2 49092  87.9111  41.4708 0001719 102.8125 257.3198 13.17650076209994
ONEWEB-0305             
1 49093U 21075U   25354.18004152  .00000001  00000+0 -29772-4 0  9992
2 49093  87.9115  41.4344 0001763 113.5315 246.6002 13.17647393210034
ONEWEB-0308             
1 49094U 21075V   25354.13932243 -.00000022  00000+0 -95417-4 0  9992
2 49094  87.8935  26.2194 0001776  95.2026 264.9306 13.12496981211072
ONEWEB-0309             
1 49095U 21075W   25354.18342101  .00000012  00000+0 -24251-5 0  9993
2 49095  87.9113  41.4495 0001366  94.2416 265.8872 13.17648025210005
ONEWEB-0310             
1 49096U 21075X   25354.07822395  .00000085  00000+0  19996-3 0  9997
2 49096  87.8922  26.2679 0001667  93.9356 266.1963 13.12409435211697
ONEWEB-0311             
1 49097U 21075Y   25354.11422886  .00000040  00000+0  69195-4 0  9992
2 49097  87.9110  41.4588 0001897 111.3869 248.7466 13.17649329210040
ONEWEB-0312             
1 49098U 21075Z   25354.12942349  .00000100  00000+0  22535-3 0  9998
2 49098  87.9100  41.4810 0001598 108.2789 251.8516 13.17649013210021
ONEWEB-0313             
1 49099U 21075AA  25354.05841232  .00000113  00000+0  25739-3 0  9993
2 49099  87.9102  41.5028 0001838 102.4308 257.7030 13.17648471210007
ONEWEB-0314             
1 49100U 21075AB  25353.87292766 -.00000058  00000+0 -18257-3 0  9994
2 49100  87.9113  41.4930 0001542 110.6825 249.4472 13.17647853209953
ONEWEB-0315             
1 49101U 21075AC  25354.12754110 -.00000235  00000+0 -68819-3 0  9996
2 49101  87.8935  26.2069 0002011 106.2413 253.8937 13.12561781211683
ONEWEB-0316             
1 49102U 21075AD  25354.01445805  .00000083  00000+0  17866-3 0  9998
2 49102  87.9174  11.0502 0001814  95.5967 264.5372 13.18686575213597
ONEWEB-0317             
1 49103U 21075AE  25354.04530003 -.00000315  00000+0 -90900-3 0  9997
2 49103  87.8934  26.2416 0001549  70.8691 289.2606 13.12488679211690
ONEWEB-0318             
1 49104U 21075AF  25354.01115756  .00000115  00000+0  25777-3 0  9995
2 49104  87.9176  11.0384 0001836 101.6029 258.5310 13.18686624213557
ONEWEB-0319             
1 49105U 21075AG  25354.11590271  .00000066  00000+0  13619-3 0  9993
2 49105  87.9102  41.4775 0001871 114.1896 245.9432 13.17650805210023
ONEWEB-0323             
1 49106U 21075AH  25354.11213319 -.00000216  00000+0 -63603-3 0  9996
2 49106  87.8934  26.2150 0001867 117.4494 242.6824 13.12430579211062
ONEWEB-0329             
1 49107U 21075AJ  25354.12436476  .00000008  00000+0 -12350-4 0  9991
2 49107  87.9100  41.4778 0001721 103.2931 256.8392 13.17648351210006
